[{"OBJECT_NAME":"STARLINK-37258","OBJECT_ID":"2026-099A","EPOCH":"2026-05-22T06:13:29.446176","MEAN_MOTION":15.78741342,"ECCENTRICITY":0.00059846,"INCLINATION":53.1592,"RA_OF_ASC_NODE":284.5156,"ARG_OF_PERICENTER":334.1694,"MEAN_ANOMALY":25.9029,"EPHEMERIS_TYPE":0,"CLASSIFICATION_TYPE":"U","NORAD_CAT_ID":68951,"ELEMENT_SET_NO":999,"REV_AT_EPOCH":326,"BSTAR":-0.0046453388,"MEAN_MOTION_DOT":-0.00764142,"MEAN_MOTION_DDOT":0},{"OBJECT_NAME":"STARLINK-37308","OBJECT_ID":"2026-099B","EPOCH":"2026-05-22T06:00:02.000160","MEAN_MOTION":15.6247333,"ECCENTRICITY":9.402e-05,"INCLINATION":53.159,"RA_OF_ASC_NODE":284.8436,"ARG_OF_PERICENTER":72.9819,"MEAN_ANOMALY":95.8783,"EPHEMERIS_TYPE":0,"CLASSIFICATION_TYPE":"U","NORAD_CAT_ID":68952,"ELEMENT_SET_NO":999,"REV_AT_EPOCH":449,"BSTAR":-0.023228348,"MEAN_MOTION_DOT":-0.0186612,"MEAN_MOTION_DDOT":0},{"OBJECT_NAME":"STARLINK-37337","OBJECT_ID":"2026-099C","EPOCH":"2026-05-22T06:00:02.000160","MEAN_MOTION":15.59968436,"ECCENTRICITY":8.677e-05,"INCLINATION":53.1585,"RA_OF_ASC_NODE":284.9209,"ARG_OF_PERICENTER":83.7544,"MEAN_ANOMALY":47.2729,"EPHEMERIS_TYPE":0,"CLASSIFICATION_TYPE":"U","NORAD_CAT_ID":68953,"ELEMENT_SET_NO":999,"REV_AT_EPOCH":449,"BSTAR":-0.025513955,"MEAN_MOTION_DOT":-0.01859767,"MEAN_MOTION_DDOT":0},{"OBJECT_NAME":"STARLINK-37301","OBJECT_ID":"2026-099D","EPOCH":"2026-05-22T06:00:02.000160","MEAN_MOTION":15.62367426,"ECCENTRICITY":0.0001203,"INCLINATION":53.1592,"RA_OF_ASC_NODE":284.7639,"ARG_OF_PERICENTER":82.4793,"MEAN_ANOMALY":124.356,"EPHEMERIS_TYPE":0,"CLASSIFICATION_TYPE":"U","NORAD_CAT_ID":68954,"ELEMENT_SET_NO":999,"REV_AT_EPOCH":449,"BSTAR":-0.028289774,"MEAN_MOTION_DOT":-0.02255568,"MEAN_MOTION_DDOT":0},{"OBJECT_NAME":"STARLINK-36794","OBJECT_ID":"2026-099E","EPOCH":"2026-05-22T06:10:47.484192","MEAN_MOTION":15.77997532,"ECCENTRICITY":0.00026543,"INCLINATION":53.1586,"RA_OF_ASC_NODE":284.5015,"ARG_OF_PERICENTER":346.1454,"MEAN_ANOMALY":13.9494,"EPHEMERIS_TYPE":0,"CLASSIFICATION_TYPE":"U","NORAD_CAT_ID":68955,"ELEMENT_SET_NO":999,"REV_AT_EPOCH":326,"BSTAR":-0.0050990842,"MEAN_MOTION_DOT":-0.00805432,"MEAN_MOTION_DDOT":0},{"OBJECT_NAME":"STARLINK-36760","OBJECT_ID":"2026-099F","EPOCH":"2026-05-22T06:00:02.000160","MEAN_MOTION":15.77504393,"ECCENTRICITY":6.221e-05,"INCLINATION":53.1592,"RA_OF_ASC_NODE":284.5213,"ARG_OF_PERICENTER":76.4622,"MEAN_ANOMALY":249.6058,"EPHEMERIS_TYPE":0,"CLASSIFICATION_TYPE":"U","NORAD_CAT_ID":68956,"ELEMENT_SET_NO":999,"REV_AT_EPOCH":454,"BSTAR":-0.012632059,"MEAN_MOTION_DOT":-0.01868789,"MEAN_MOTION_DDOT":0},{"OBJECT_NAME":"STARLINK-37047","OBJECT_ID":"2026-099G","EPOCH":"2026-05-22T06:00:02.000160","MEAN_MOTION":15.59946045,"ECCENTRICITY":0.00010051,"INCLINATION":53.1591,"RA_OF_ASC_NODE":284.8867,"ARG_OF_PERICENTER":69.8518,"MEAN_ANOMALY":77.899,"EPHEMERIS_TYPE":0,"CLASSIFICATION_TYPE":"U","NORAD_CAT_ID":68957,"ELEMENT_SET_NO":999,"REV_AT_EPOCH":454,"BSTAR":-0.025473925,"MEAN_MOTION_DOT":-0.01855841,"MEAN_MOTION_DDOT":0},{"OBJECT_NAME":"STARLINK-36242","OBJECT_ID":"2026-099H","EPOCH":"2026-05-22T06:05:56.525280","MEAN_MOTION":15.78866954,"ECCENTRICITY":0.00010869,"INCLINATION":53.1583,"RA_OF_ASC_NODE":284.4785,"ARG_OF_PERICENTER":168.2869,"MEAN_ANOMALY":191.8178,"EPHEMERIS_TYPE":0,"CLASSIFICATION_TYPE":"U","NORAD_CAT_ID":68958,"ELEMENT_SET_NO":999,"REV_AT_EPOCH":326,"BSTAR":-0.0042755834,"MEAN_MOTION_DOT":-0.00710029,"MEAN_MOTION_DDOT":0},{"OBJECT_NAME":"STARLINK-37033","OBJECT_ID":"2026-099J","EPOCH":"2026-05-22T06:00:02.000160","MEAN_MOTION":15.59819764,"ECCENTRICITY":9.858e-05,"INCLINATION":53.159,"RA_OF_ASC_NODE":284.803,"ARG_OF_PERICENTER":72.2333,"MEAN_ANOMALY":116.237,"EPHEMERIS_TYPE":0,"CLASSIFICATION_TYPE":"U","NORAD_CAT_ID":68959,"ELEMENT_SET_NO":999,"REV_AT_EPOCH":454,"BSTAR":-0.031280696,"MEAN_MOTION_DOT":-0.02257835,"MEAN_MOTION_DDOT":0},{"OBJECT_NAME":"STARLINK-36978","OBJECT_ID":"2026-099K","EPOCH":"2026-05-22T06:00:02.000160","MEAN_MOTION":15.59978678,"ECCENTRICITY":9.158e-05,"INCLINATION":53.1591,"RA_OF_ASC_NODE":284.8596,"ARG_OF_PERICENTER":77.5248,"MEAN_ANOMALY":83.5543,"EPHEMERIS_TYPE":0,"CLASSIFICATION_TYPE":"U","NORAD_CAT_ID":68960,"ELEMENT_SET_NO":999,"REV_AT_EPOCH":454,"BSTAR":-0.025521589,"MEAN_MOTION_DOT":-0.0186094,"MEAN_MOTION_DDOT":0},{"OBJECT_NAME":"STARLINK-36965","OBJECT_ID":"2026-099L","EPOCH":"2026-05-22T06:00:02.000160","MEAN_MOTION":15.61388603,"ECCENTRICITY":0.00010874,"INCLINATION":53.1593,"RA_OF_ASC_NODE":284.7996,"ARG_OF_PERICENTER":74.3688,"MEAN_ANOMALY":115.357,"EPHEMERIS_TYPE":0,"CLASSIFICATION_TYPE":"U","NORAD_CAT_ID":68961,"ELEMENT_SET_NO":999,"REV_AT_EPOCH":454,"BSTAR":-0.024224557,"MEAN_MOTION_DOT":-0.01865302,"MEAN_MOTION_DDOT":0},{"OBJECT_NAME":"STARLINK-36765","OBJECT_ID":"2026-099M","EPOCH":"2026-05-22T02:59:00.323520","MEAN_MOTION":15.8027056,"ECCENTRICITY":0.00027268,"INCLINATION":53.1583,"RA_OF_ASC_NODE":285.0899,"ARG_OF_PERICENTER":63.2058,"MEAN_ANOMALY":296.9243,"EPHEMERIS_TYPE":0,"CLASSIFICATION_TYPE":"U","NORAD_CAT_ID":68962,"ELEMENT_SET_NO":999,"REV_AT_EPOCH":324,"BSTAR":-0.0023907143,"MEAN_MOTION_DOT":-0.00437357,"MEAN_MOTION_DDOT":0},{"OBJECT_NAME":"STARLINK-36764","OBJECT_ID":"2026-099N","EPOCH":"2026-05-22T02:57:53.828352","MEAN_MOTION":15.80615961,"ECCENTRICITY":0.000688,"INCLINATION":53.1582,"RA_OF_ASC_NODE":285.0863,"ARG_OF_PERICENTER":59.2099,"MEAN_ANOMALY":300.96,"EPHEMERIS_TYPE":0,"CLASSIFICATION_TYPE":"U","NORAD_CAT_ID":68963,"ELEMENT_SET_NO":999,"REV_AT_EPOCH":324,"BSTAR":0.00039857916,"MEAN_MOTION_DOT":0.00077856,"MEAN_MOTION_DDOT":0},{"OBJECT_NAME":"STARLINK-36731","OBJECT_ID":"2026-099P","EPOCH":"2026-05-22T05:58:46.606656","MEAN_MOTION":15.80941022,"ECCENTRICITY":6.253e-05,"INCLINATION":53.1582,"RA_OF_ASC_NODE":284.4453,"ARG_OF_PERICENTER":47.363,"MEAN_ANOMALY":312.7445,"EPHEMERIS_TYPE":0,"CLASSIFICATION_TYPE":"U","NORAD_CAT_ID":68964,"ELEMENT_SET_NO":999,"REV_AT_EPOCH":326,"BSTAR":0.00099435001,"MEAN_MOTION_DOT":0.00200815,"MEAN_MOTION_DDOT":0},{"OBJECT_NAME":"STARLINK-36664","OBJECT_ID":"2026-099Q","EPOCH":"2026-05-22T05:57:41.801472","MEAN_MOTION":15.80915323,"ECCENTRICITY":7.212e-05,"INCLINATION":53.1582,"RA_OF_ASC_NODE":284.4409,"ARG_OF_PERICENTER":95.0372,"MEAN_ANOMALY":265.0733,"EPHEMERIS_TYPE":0,"CLASSIFICATION_TYPE":"U","NORAD_CAT_ID":68965,"ELEMENT_SET_NO":999,"REV_AT_EPOCH":326,"BSTAR":0.00084776012,"MEAN_MOTION_DOT":0.00170293,"MEAN_MOTION_DDOT":0},{"OBJECT_NAME":"STARLINK-36402","OBJECT_ID":"2026-099R","EPOCH":"2026-05-22T06:00:02.000160","MEAN_MOTION":15.73113087,"ECCENTRICITY":6.654e-05,"INCLINATION":53.1593,"RA_OF_ASC_NODE":284.476,"ARG_OF_PERICENTER":82.3159,"MEAN_ANOMALY":265.5268,"EPHEMERIS_TYPE":0,"CLASSIFICATION_TYPE":"U","NORAD_CAT_ID":68966,"ELEMENT_SET_NO":999,"REV_AT_EPOCH":454,"BSTAR":-0.015326806,"MEAN_MOTION_DOT":-0.0186735,"MEAN_MOTION_DDOT":0}]