STARLINK-37258          
1 68951U 26099A   26142.25936859 -.00764142  00000+0 -46453-2 0  9996
2 68951  53.1592 284.5156 0005984 334.1694  25.9029 15.78741342  3263
STARLINK-37308          
1 68952U 26099B   26142.25002315 -.01866120  00000+0 -23228-1 0  9992
2 68952  53.1590 284.8436 0000940  72.9819  95.8783 15.62473330  4490
STARLINK-37337          
1 68953U 26099C   26142.25002315 -.01859767  00000+0 -25514-1 0  9992
2 68953  53.1585 284.9209 0000867  83.7544  47.2729 15.59968436  4490
STARLINK-37301          
1 68954U 26099D   26142.25002315 -.02255568  00000+0 -28290-1 0  9997
2 68954  53.1592 284.7639 0001203  82.4793 124.3560 15.62367426  4497
STARLINK-36794          
1 68955U 26099E   26142.25749403 -.00805432  00000+0 -50991-2 0  9997
2 68955  53.1586 284.5015 0002654 346.1454  13.9494 15.77997532  3268
STARLINK-36760          
1 68956U 26099F   26142.25002315 -.01868789  00000+0 -12632-1 0  9996
2 68956  53.1592 284.5213 0000622  76.4622 249.6058 15.77504393  4544
STARLINK-37047          
1 68957U 26099G   26142.25002315 -.01855841  00000+0 -25474-1 0  9990
2 68957  53.1591 284.8867 0001005  69.8518  77.8990 15.59946045  4548
STARLINK-36242          
1 68958U 26099H   26142.25412645 -.00710029  00000+0 -42756-2 0  9992
2 68958  53.1583 284.4785 0001086 168.2869 191.8178 15.78866954  3261
STARLINK-37033          
1 68959U 26099J   26142.25002315 -.02257835  00000+0 -31281-1 0  9995
2 68959  53.1590 284.8030 0000985  72.2333 116.2370 15.59819764  4547
STARLINK-36978          
1 68960U 26099K   26142.25002315 -.01860940  00000+0 -25522-1 0  9994
2 68960  53.1591 284.8596 0000915  77.5248  83.5543 15.59978678  4541
STARLINK-36965          
1 68961U 26099L   26142.25002315 -.01865302  00000+0 -24225-1 0  9991
2 68961  53.1593 284.7996 0001087  74.3688 115.3570 15.61388603  4541
STARLINK-36765          
1 68962U 26099M   26142.12430930 -.00437357  00000+0 -23907-2 0  9997
2 68962  53.1583 285.0899 0002726  63.2058 296.9243 15.80270560  3248
STARLINK-36764          
1 68963U 26099N   26142.12353968  .00077856  00000+0  39858-3 0  9998
2 68963  53.1582 285.0863 0006880  59.2099 300.9600 15.80615961  3245
STARLINK-36731          
1 68964U 26099P   26142.24915054  .00200815  00000+0  99435-3 0  9992
2 68964  53.1582 284.4453 0000625  47.3630 312.7445 15.80941022  3264
STARLINK-36664          
1 68965U 26099Q   26142.24840048  .00170293  00000+0  84776-3 0  9991
2 68965  53.1582 284.4409 0000721  95.0372 265.0733 15.80915323  3261
STARLINK-36402          
1 68966U 26099R   26142.25002315 -.01867350  00000+0 -15327-1 0  9994
2 68966  53.1593 284.4760 0000665  82.3159 265.5268 15.73113087  4542
